{"type": "FeatureCollection", "features": [{"type": "Feature", "properties": {"norad_id": 22675, "name": "COSMOS 2251", "group": "cosmos-2251-debris", "lat": -12.522245340940106, "lon": -66.25798557189437, "alt_km": 769.9751322146512, "timestamp": "2025-12-22T20:43:46.240505+00:00", "meta": {"OBJECT_NAME": "COSMOS 2251", "OBJECT_ID": "1993-036A", "EPOCH": "2025-12-22T05:42:46.014912", "MEAN_MOTION": 14.33207424, "ECCENTRICITY": 0.00243515, "INCLINATION": 74.04, "RA_OF_ASC_NODE": 298.5289, "ARG_OF_PERICENTER": 18.1837, "MEAN_ANOMALY": 342.0179, "EPHEMERIS_TYPE": 0, "CLASSIFICATION_TYPE": "U", "NORAD_CAT_ID": 22675, "ELEMENT_SET_NO": 999, "REV_AT_EPOCH": 69909, "BSTAR": 4.8757781e-05, "MEAN_MOTION_DOT": 1.08e-06, "MEAN_MOTION_DDOT": 0}, "tle": {"line1": "1 22675U 93036A   25356.23803258  .00000108  00000+0  48758-4 0  9999", "line2": "2 22675  74.0400 298.5289 0024351  18.1837 342.0179 14.33207424699094"}}, "geometry": {"type": "Point", "coordinates": [-66.25798557189437, -12.522245340940106]}}, {"type": "Feature", "properties": {"norad_id": 33757, "name": "COSMOS 2251 DEB", "group": "cosmos-2251-debris", "lat": 3.204596132987039, "lon": -53.953798998137316, "alt_km": 777.6283283218918, "timestamp": "2025-12-22T20:43:46.240528+00:00", "meta": {"OBJECT_NAME": "COSMOS 2251 DEB", "OBJECT_ID": "1993-036E", "EPOCH": "2025-12-22T06:09:26.485920", "MEAN_MOTION": 14.32583326, "ECCENTRICITY": 0.00155787, "INCLINATION": 74.0374, "RA_OF_ASC_NODE": 306.2359, "ARG_OF_PERICENTER": 317.9877, "MEAN_ANOMALY": 155.2117, "EPHEMERIS_TYPE": 0, "CLASSIFICATION_TYPE": "U", "NORAD_CAT_ID": 33757, "ELEMENT_SET_NO": 999, "REV_AT_EPOCH": 88132, "BSTAR": 4.2527514e-05, "MEAN_MOTION_DOT": 8.9e-07, "MEAN_MOTION_DDOT": 0}, "tle": {"line1": "1 33757U 93036E   25356.25655655  .00000089  00000+0  42528-4 0  9997", "line2": "2 33757  74.0374 306.2359 0015578 317.9877 155.2117 14.32583326881329"}}, "geometry": {"type": "Point", "coordinates": [-53.953798998137316, 3.204596132987039]}}, {"type": "Feature", "properties": {"norad_id": 33758, "name": "COSMOS 2251 DEB", "group": "cosmos-2251-debris", "lat": -70.01475744690761, "lon": 143.99771155152177, "alt_km": 715.7492361328768, "timestamp": "2025-12-22T20:43:46.240542+00:00", "meta": {"OBJECT_NAME": "COSMOS 2251 DEB", "OBJECT_ID": "1993-036F", "EPOCH": "2025-12-22T14:43:42.029760", "MEAN_MOTION": 14.5164787, "ECCENTRICITY": 0.00171787, "INCLINATION": 74.0263, "RA_OF_ASC_NODE": 196.4312, "ARG_OF_PERICENTER": 262.4772, "MEAN_ANOMALY": 153.4333, "EPHEMERIS_TYPE": 0, "CLASSIFICATION_TYPE": "U", "NORAD_CAT_ID": 33758, "ELEMENT_SET_NO": 999, "REV_AT_EPOCH": 88448, "BSTAR": 0.00069241889, "MEAN_MOTION_DOT": 2.755e-05, "MEAN_MOTION_DDOT": 0}, "tle": {"line1": "1 33758U 93036F   25356.61368090  .00002755  00000+0  69242-3 0  9995", "line2": "2 33758  74.0263 196.4312 0017178 262.4772 153.4333 14.51647870884487"}}, "geometry": {"type": "Point", "coordinates": [143.99771155152177, -70.01475744690761]}}, {"type": "Feature", "properties": {"norad_id": 33760, "name": "COSMOS 2251 DEB", "group": "cosmos-2251-debris", "lat": 3.0262458124906835, "lon": -96.25573644884146, "alt_km": 760.5541738978645, "timestamp": "2025-12-22T20:43:46.240554+00:00", "meta": {"OBJECT_NAME": "COSMOS 2251 DEB", "OBJECT_ID": "1993-036H", "EPOCH": "2025-12-22T04:44:36.167712", "MEAN_MOTION": 14.35678645, "ECCENTRICITY": 0.00202854, "INCLINATION": 74.0321, "RA_OF_ASC_NODE": 264.0989, "ARG_OF_PERICENTER": 0.1439, "MEAN_ANOMALY": 161.8415, "EPHEMERIS_TYPE": 0, "CLASSIFICATION_TYPE": "U", "NORAD_CAT_ID": 33760, "ELEMENT_SET_NO": 999, "REV_AT_EPOCH": 88260, "BSTAR": 9.9555088e-05, "MEAN_MOTION_DOT": 2.62e-06, "MEAN_MOTION_DDOT": 0}, "tle": {"line1": "1 33760U 93036H   25356.19764083  .00000262  00000+0  99555-4 0  9995", "line2": "2 33760  74.0321 264.0989 0020285   0.1439 161.8415 14.35678645882609"}}, "geometry": {"type": "Point", "coordinates": [-96.25573644884146, 3.0262458124906835]}}, {"type": "Feature", "properties": {"norad_id": 33761, "name": "COSMOS 2251 DEB", "group": "cosmos-2251-debris", "lat": -2.4818243730511704, "lon": 54.090853410612, "alt_km": 763.5092860273626, "timestamp": "2025-12-22T20:43:46.240565+00:00", "meta": {"OBJECT_NAME": "COSMOS 2251 DEB", "OBJECT_ID": "1993-036J", "EPOCH": "2025-12-21T22:19:07.214304", "MEAN_MOTION": 14.42569564, "ECCENTRICITY": 0.00232733, "INCLINATION": 74.0352, "RA_OF_ASC_NODE": 235.1119, "ARG_OF_PERICENTER": 314.0482, "MEAN_ANOMALY": 61.202, "EPHEMERIS_TYPE": 0, "CLASSIFICATION_TYPE": "U", "NORAD_CAT_ID": 33761, "ELEMENT_SET_NO": 999, "REV_AT_EPOCH": 88367, "BSTAR": 0.00034386212, "MEAN_MOTION_DOT": 1.118e-05, "MEAN_MOTION_DDOT": 0}, "tle": {"line1": "1 33761U 93036J   25355.92994461  .00001118  00000+0  34386-3 0  9992", "line2": "2 33761  74.0352 235.1119 0023273 314.0482  61.2020 14.42569564883673"}}, "geometry": {"type": "Point", "coordinates": [54.090853410612, -2.4818243730511704]}}, {"type": "Feature", "properties": {"norad_id": 33762, "name": "COSMOS 2251 DEB", "group": "cosmos-2251-debris", "lat": -45.503454353641565, "lon": 128.4483258139476, "alt_km": 791.8320268626658, "timestamp": "2025-12-22T20:43:46.240576+00:00", "meta": {"OBJECT_NAME": "COSMOS 2251 DEB", "OBJECT_ID": "1993-036K", "EPOCH": "2025-12-22T06:50:57.899904", "MEAN_MOTION": 14.33666529, "ECCENTRICITY": 0.0015399, "INCLINATION": 74.0421, "RA_OF_ASC_NODE": 292.5749, "ARG_OF_PERICENTER": 351.7348, "MEAN_ANOMALY": 132.51, "EPHEMERIS_TYPE": 0, "CLASSIFICATION_TYPE": "U", "NORAD_CAT_ID": 33762, "ELEMENT_SET_NO": 999, "REV_AT_EPOCH": 88184, "BSTAR": 4.9616135e-05, "MEAN_MOTION_DOT": 1.12e-06, "MEAN_MOTION_DDOT": 0}, "tle": {"line1": "1 33762U 93036K   25356.28539236  .00000112  00000+0  49616-4 0  9994", "line2": "2 33762  74.0421 292.5749 0015399 351.7348 132.5100 14.33666529881843"}}, "geometry": {"type": "Point", "coordinates": [128.4483258139476, -45.503454353641565]}}, {"type": "Feature", "properties": {"norad_id": 33764, "name": "COSMOS 2251 DEB", "group": "cosmos-2251-debris", "lat": -39.19899357963466, "lon": 87.46603618699056, "alt_km": 749.4123858437952, "timestamp": "2025-12-22T20:43:46.240587+00:00", "meta": {"OBJECT_NAME": "COSMOS 2251 DEB", "OBJECT_ID": "1993-036M", "EPOCH": "2025-12-22T12:10:07.740192", "MEAN_MOTION": 14.39529596, "ECCENTRICITY": 0.00235038, "INCLINATION": 74.0333, "RA_OF_ASC_NODE": 254.6216, "ARG_OF_PERICENTER": 218.5311, "MEAN_ANOMALY": 314.7028, "EPHEMERIS_TYPE": 0, "CLASSIFICATION_TYPE": "U", "NORAD_CAT_ID": 33764, "ELEMENT_SET_NO": 999, "REV_AT_EPOCH": 88297, "BSTAR": 0.00027852218, "MEAN_MOTION_DOT": 8.45e-06, "MEAN_MOTION_DDOT": 0}, "tle": {"line1": "1 33764U 93036M   25356.50703403  .00000845  00000+0  27852-3 0  9990", "line2": "2 33764  74.0333 254.6216 0023503 218.5311 314.7028 14.39529596882977"}}, "geometry": {"type": "Point", "coordinates": [87.46603618699056, -39.19899357963466]}}, {"type": "Feature", "properties": {"norad_id": 33765, "name": "COSMOS 2251 DEB", "group": "cosmos-2251-debris", "lat": 67.86529242620063, "lon": -72.66844104804093, "alt_km": 560.3827537683501, "timestamp": "2025-12-22T20:43:46.240598+00:00", "meta": {"OBJECT_NAME": "COSMOS 2251 DEB", "OBJECT_ID": "1993-036N", "EPOCH": "2025-12-22T03:19:16.051872", "MEAN_MOTION": 15.10475433, "ECCENTRICITY": 0.00649466, "INCLINATION": 74.0085, "RA_OF_ASC_NODE": 153.6643, "ARG_OF_PERICENTER": 244.2417, "MEAN_ANOMALY": 239.1302, "EPHEMERIS_TYPE": 0, "CLASSIFICATION_TYPE": "U", "NORAD_CAT_ID": 33765, "ELEMENT_SET_NO": 999, "REV_AT_EPOCH": 89760, "BSTAR": 0.0017852281, "MEAN_MOTION_DOT": 0.00030997, "MEAN_MOTION_DDOT": 0}, "tle": {"line1": "1 33765U 93036N   25356.13838023  .00030997  00000+0  17852-2 0  9996", "line2": "2 33765  74.0085 153.6643 0064946 244.2417 239.1302 15.10475433897604"}}, "geometry": {"type": "Point", "coordinates": [-72.66844104804093, 67.86529242620063]}}, {"type": "Feature", "properties": {"norad_id": 33766, "name": "COSMOS 2251 DEB", "group": "cosmos-2251-debris", "lat": 73.05513324788684, "lon": -131.87528977915827, "alt_km": 802.5930155573078, "timestamp": "2025-12-22T20:43:46.240609+00:00", "meta": {"OBJECT_NAME": "COSMOS 2251 DEB", "OBJECT_ID": "1993-036P", "EPOCH": "2025-12-22T11:55:02.066016", "MEAN_MOTION": 14.34961438, "ECCENTRICITY": 0.00646591, "INCLINATION": 74.1859, "RA_OF_ASC_NODE": 117.2614, "ARG_OF_PERICENTER": 317.9573, "MEAN_ANOMALY": 41.6627, "EPHEMERIS_TYPE": 0, "CLASSIFICATION_TYPE": "U", "NORAD_CAT_ID": 33766, "ELEMENT_SET_NO": 999, "REV_AT_EPOCH": 87885, "BSTAR": 0.00048090311, "MEAN_MOTION_DOT": 1.376e-05, "MEAN_MOTION_DDOT": 0}, "tle": {"line1": "1 33766U 93036P   25356.49655169  .00001376  00000+0  48090-3 0  9992", "line2": "2 33766  74.1859 117.2614 0064659 317.9573  41.6627 14.34961438878853"}}, "geometry": {"type": "Point", "coordinates": [-131.87528977915827, 73.05513324788684]}}, {"type": "Feature", "properties": {"norad_id": 33768, "name": "COSMOS 2251 DEB", "group": "cosmos-2251-debris", "lat": 54.75914083666572, "lon": -0.32054990878179945, "alt_km": 1175.6846815313147, "timestamp": "2025-12-22T20:43:46.240619+00:00", "meta": {"OBJECT_NAME": "COSMOS 2251 DEB", "OBJECT_ID": "1993-036R", "EPOCH": "2025-12-22T01:17:04.870176", "MEAN_MOTION": 13.58462623, "ECCENTRICITY": 0.03667533, "INCLINATION": 74.0666, "RA_OF_ASC_NODE": 204.8363, "ARG_OF_PERICENTER": 0.5492, "MEAN_ANOMALY": 116.8883, "EPHEMERIS_TYPE": 0, "CLASSIFICATION_TYPE": "U", "NORAD_CAT_ID": 33768, "ELEMENT_SET_NO": 999, "REV_AT_EPOCH": 83422, "BSTAR": 0.00030353504, "MEAN_MOTION_DOT": 3.21e-06, "MEAN_MOTION_DDOT": 0}, "tle": {"line1": "1 33768U 93036R   25356.05352859  .00000321  00000+0  30354-3 0  9999", "line2": "2 33768  74.0666 204.8363 0366753   0.5492 116.8883 13.58462623834228"}}, "geometry": {"type": "Point", "coordinates": [-0.32054990878179945, 54.75914083666572]}}]}